{"type": "FeatureCollection", "features": [ {"type": "Feature", "properties": {"norad_id": 66747, "name": "W-SERIES 5", "group": "last-30-days", "lat": -52.698559872810115, "lon": -120.51031942986577, "alt_km": 519.4095386121317, "timestamp": "2025-12-23T18:59:30.757588+00:00", "meta": {"OBJECT_NAME": "W-SERIES 5", "OBJECT_ID": "2025-276CK", "EPOCH": "2025-12-23T03:43:28.007328", "MEAN_MOTION": 15.17541126, "ECCENTRICITY": 0.00014347, "INCLINATION": 97.4412, "RA_OF_ASC_NODE": 68.7431, "ARG_OF_PERICENTER": 205.9301, "MEAN_ANOMALY": 154.1861, "EPHEMERIS_TYPE": 0, "CLASSIFICATION_TYPE": "U", "NORAD_CAT_ID": 66747, "ELEMENT_SET_NO": 999, "REV_AT_EPOCH": 370, "BSTAR": 0.00032051556, "MEAN_MOTION_DOT": 6.366e-05, "MEAN_MOTION_DDOT": 0}, "tle": {"line1": "1 66747U 25276CK  25357.15518527  .00006366  00000+0  32052-3 0  9993", "line2": "2 66747  97.4412  68.7431 0001434 205.9301 154.1861 15.17541126  3709"}}, "geometry": {"type": "Point", "coordinates": [-120.51031942986577, -52.698559872810115]}}, {"type": "Feature", "properties": {"norad_id": 66748, "name": "TRANSPORTER-15CL", "group": "last-30-days", "lat": -73.50529817069796, "lon": 95.5782168894219, "alt_km": 514.4733975308154, "timestamp": "2025-12-23T18:59:30.757596+00:00", "meta": {"OBJECT_NAME": "TRANSPORTER-15CL", "OBJECT_ID": "2025-276CL", "EPOCH": "2025-12-23T03:30:39.511296", "MEAN_MOTION": 15.18710233, "ECCENTRICITY": 0.0003674, "INCLINATION": 97.4407, "RA_OF_ASC_NODE": 68.7529, "ARG_OF_PERICENTER": 243.4715, "MEAN_ANOMALY": 116.6143, "EPHEMERIS_TYPE": 0, "CLASSIFICATION_TYPE": "U", "NORAD_CAT_ID": 66748, "ELEMENT_SET_NO": 999, "REV_AT_EPOCH": 370, "BSTAR": 0.0089465359, "MEAN_MOTION_DOT": 0.00190348, "MEAN_MOTION_DDOT": 0}, "tle": {"line1": "1 66748U 25276CL  25357.14629064  .00190348  00000+0  89465-2 0  9995", "line2": "2 66748  97.4407  68.7529 0003674 243.4715 116.6143 15.18710233  3700"}}, "geometry": {"type": "Point", "coordinates": [95.5782168894219, -73.50529817069796]}}, {"type": "Feature", "properties": {"norad_id": 66749, "name": "TRANSPORTER-15CM", "group": "last-30-days", "lat": -75.25021321038878, "lon": -140.38601658892955, "alt_km": 519.125357832665, "timestamp": "2025-12-23T18:59:30.757605+00:00", "meta": {"OBJECT_NAME": "TRANSPORTER-15CM", "OBJECT_ID": "2025-276CM", "EPOCH": "2025-12-23T05:12:17.622432", "MEAN_MOTION": 15.17880054, "ECCENTRICITY": 0.00018257, "INCLINATION": 97.44, "RA_OF_ASC_NODE": 68.8087, "ARG_OF_PERICENTER": 188.8387, "MEAN_ANOMALY": 171.2815, "EPHEMERIS_TYPE": 0, "CLASSIFICATION_TYPE": "U", "NORAD_CAT_ID": 66749, "ELEMENT_SET_NO": 999, "REV_AT_EPOCH": 371, "BSTAR": 0.00055649355, "MEAN_MOTION_DOT": 0.00011218, "MEAN_MOTION_DDOT": 0}, "tle": {"line1": "1 66749U 25276CM  25357.21687063  .00011218  00000+0  55649-3 0  9993", "line2": "2 66749  97.4400  68.8087 0001825 188.8387 171.2815 15.17880054  3719"}}, "geometry": {"type": "Point", "coordinates": [-140.38601658892955, -75.25021321038878]}}, {"type": "Feature", "properties": {"norad_id": 66750, "name": "TRANSPORTER-15CN", "group": "last-30-days", "lat": -81.22089894964851, "lon": 127.24356681830899, "alt_km": 519.9330138884552, "timestamp": "2025-12-23T18:59:30.757614+00:00", "meta": {"OBJECT_NAME": "TRANSPORTER-15CN", "OBJECT_ID": "2025-276CN", "EPOCH": "2025-12-23T03:32:51.463968", "MEAN_MOTION": 15.18036867, "ECCENTRICITY": 0.00020874, "INCLINATION": 97.444, "RA_OF_ASC_NODE": 68.7634, "ARG_OF_PERICENTER": 151.4882, "MEAN_ANOMALY": 208.6467, "EPHEMERIS_TYPE": 0, "CLASSIFICATION_TYPE": "U", "NORAD_CAT_ID": 66750, "ELEMENT_SET_NO": 999, "REV_AT_EPOCH": 370, "BSTAR": 0.00052132328, "MEAN_MOTION_DOT": 0.00010551, "MEAN_MOTION_DDOT": 0}, "tle": {"line1": "1 66750U 25276CN  25357.14781787  .00010551  00000+0  52132-3 0  9998", "line2": "2 66750  97.4440  68.7634 0002087 151.4882 208.6467 15.18036867  3702"}}, "geometry": {"type": "Point", "coordinates": [127.24356681830899, -81.22089894964851]}}, {"type": "Feature", "properties": {"norad_id": 66751, "name": "ICEYE-X58", "group": "last-30-days", "lat": -73.4151109696888, "lon": -136.64953574114858, "alt_km": 518.7395563481368, "timestamp": "2025-12-23T18:59:30.757636+00:00", "meta": {"OBJECT_NAME": "ICEYE-X58", "OBJECT_ID": "2025-276CP", "EPOCH": "2025-12-23T05:12:48.349728", "MEAN_MOTION": 15.17809621, "ECCENTRICITY": 0.00023209, "INCLINATION": 97.4412, "RA_OF_ASC_NODE": 68.8164, "ARG_OF_PERICENTER": 206.542, "MEAN_ANOMALY": 153.5695, "EPHEMERIS_TYPE": 0, "CLASSIFICATION_TYPE": "U", "NORAD_CAT_ID": 66751, "ELEMENT_SET_NO": 999, "REV_AT_EPOCH": 371, "BSTAR": 0.00047907941, "MEAN_MOTION_DOT": 9.627e-05, "MEAN_MOTION_DDOT": 0}, "tle": {"line1": "1 66751U 25276CP  25357.21722627  .00009627  00000+0  47908-3 0  9992", "line2": "2 66751  97.4412  68.8164 0002320 206.5420 153.5695 15.17809621  3718"}}, "geometry": {"type": "Point", "coordinates": [-136.64953574114858, -73.4151109696888]}}, {"type": "Feature", "properties": {"norad_id": 66752, "name": "ICEYE-X59", "group": "last-30-days", "lat": -57.10609156564466, "lon": -122.28463661130588, "alt_km": 518.8527667106946, "timestamp": "2025-12-23T18:59:30.757661+00:00", "meta": {"OBJECT_NAME": "ICEYE-X59", "OBJECT_ID": "2025-276CQ", "EPOCH": "2025-12-23T03:42:18.311040", "MEAN_MOTION": 15.17604843, "ECCENTRICITY": 0.00019247, "INCLINATION": 97.4407, "RA_OF_ASC_NODE": 68.7472, "ARG_OF_PERICENTER": 236.2427, "MEAN_ANOMALY": 123.8624, "EPHEMERIS_TYPE": 0, "CLASSIFICATION_TYPE": "U", "NORAD_CAT_ID": 66752, "ELEMENT_SET_NO": 999, "REV_AT_EPOCH": 370, "BSTAR": 0.0003340248, "MEAN_MOTION_DOT": 6.65e-05, "MEAN_MOTION_DDOT": 0}, "tle": {"line1": "1 66752U 25276CQ  25357.15437860  .00006650  00000+0  33402-3 0  9995", "line2": "2 66752  97.4407  68.7472 0001924 236.2427 123.8624 15.17604843  3700"}}, "geometry": {"type": "Point", "coordinates": [-122.28463661130588, -57.10609156564466]}}, {"type": "Feature", "properties": {"norad_id": 66753, "name": "ICEYE-X60", "group": "last-30-days", "lat": -34.885992021692005, "lon": -115.86876540359025, "alt_km": 520.7514213856994, "timestamp": "2025-12-23T18:59:30.757674+00:00", "meta": {"OBJECT_NAME": "ICEYE-X60", "OBJECT_ID": "2025-276CR", "EPOCH": "2025-12-22T16:43:05.853792", "MEAN_MOTION": 15.17180475, "ECCENTRICITY": 0.00011044, "INCLINATION": 97.441, "RA_OF_ASC_NODE": 68.2849, "ARG_OF_PERICENTER": 193.8242, "MEAN_ANOMALY": 166.2962, "EPHEMERIS_TYPE": 0, "CLASSIFICATION_TYPE": "U", "NORAD_CAT_ID": 66753, "ELEMENT_SET_NO": 999, "REV_AT_EPOCH": 363, "BSTAR": -0.0054396978, "MEAN_MOTION_DOT": -0.00106457, "MEAN_MOTION_DDOT": 0}, "tle": {"line1": "1 66753U 25276CR  25356.69659553 -.00106457  00000+0 -54397-2 0  9992", "line2": "2 66753  97.4410  68.2849 0001104 193.8242 166.2962 15.17180475  3639"}}, "geometry": {"type": "Point", "coordinates": [-115.86876540359025, -34.885992021692005]}}, {"type": "Feature", "properties": {"norad_id": 66754, "name": "ICEYE-X61", "group": "last-30-days", "lat": -77.58260433430573, "lon": -147.03150866467203, "alt_km": 519.0803729085046, "timestamp": "2025-12-23T18:59:30.757683+00:00", "meta": {"OBJECT_NAME": "ICEYE-X61", "OBJECT_ID": "2025-276CS", "EPOCH": "2025-12-23T03:36:36.452160", "MEAN_MOTION": 15.17853549, "ECCENTRICITY": 0.00022968, "INCLINATION": 97.4406, "RA_OF_ASC_NODE": 68.7477, "ARG_OF_PERICENTER": 193.1606, "MEAN_ANOMALY": 166.9569, "EPHEMERIS_TYPE": 0, "CLASSIFICATION_TYPE": "U", "NORAD_CAT_ID": 66754, "ELEMENT_SET_NO": 999, "REV_AT_EPOCH": 370, "BSTAR": 0.000440698, "MEAN_MOTION_DOT": 8.861e-05, "MEAN_MOTION_DDOT": 0}, "tle": {"line1": "1 66754U 25276CS  25357.15042190  .00008861  00000+0  44070-3 0  9994", "line2": "2 66754  97.4406  68.7477 0002296 193.1606 166.9569 15.17853549  3704"}}, "geometry": {"type": "Point", "coordinates": [-147.03150866467203, -77.58260433430573]}}, {"type": "Feature", "properties": {"norad_id": 66755, "name": "ICEYE-X62", "group": "last-30-days", "lat": -55.931089284127026, "lon": -121.77770389796078, "alt_km": 519.0034822422058, "timestamp": "2025-12-23T18:59:30.757695+00:00", "meta": {"OBJECT_NAME": "ICEYE-X62", "OBJECT_ID": "2025-276CT", "EPOCH": "2025-12-22T22:57:46.373472", "MEAN_MOTION": 15.17604649, "ECCENTRICITY": 0.00026826, "INCLINATION": 97.4395, "RA_OF_ASC_NODE": 68.5434, "ARG_OF_PERICENTER": 290.3052, "MEAN_ANOMALY": 69.7893, "EPHEMERIS_TYPE": 0, "CLASSIFICATION_TYPE": "U", "NORAD_CAT_ID": 66755, "ELEMENT_SET_NO": 999, "REV_AT_EPOCH": 367, "BSTAR": 7.2637995e-05, "MEAN_MOTION_DOT": 1.393e-05, "MEAN_MOTION_DDOT": 0}, "tle": {"line1": "1 66755U 25276CT  25356.95678673  .00001393  00000+0  72638-4 0  9998", "line2": "2 66755  97.4395  68.5434 0002682 290.3052  69.7893 15.17604649  3678"}}, "geometry": {"type": "Point", "coordinates": [-121.77770389796078, -55.931089284127026]}}, {"type": "Feature", "properties": {"norad_id": 66756, "name": "TRANSPORTER-15CU", "group": "last-30-days", "lat": -81.62052850244378, "lon": -173.15264781222567, "alt_km": 519.7471580745287, "timestamp": "2025-12-23T18:59:30.757704+00:00", "meta": {"OBJECT_NAME": "TRANSPORTER-15CU", "OBJECT_ID": "2025-276CU", "EPOCH": "2025-12-23T05:09:58.619520", "MEAN_MOTION": 15.17950131, "ECCENTRICITY": 0.00015219, "INCLINATION": 97.4413, "RA_OF_ASC_NODE": 68.8178, "ARG_OF_PERICENTER": 156.935, "MEAN_ANOMALY": 203.1952, "EPHEMERIS_TYPE": 0, "CLASSIFICATION_TYPE": "U", "NORAD_CAT_ID": 66756, "ELEMENT_SET_NO": 999, "REV_AT_EPOCH": 371, "BSTAR": 0.00051124767, "MEAN_MOTION_DOT": 0.0001032, "MEAN_MOTION_DDOT": 0}, "tle": {"line1": "1 66756U 25276CU  25357.21526180  .00010320  00000+0  51125-3 0  9991", "line2": "2 66756  97.4413  68.8178 0001521 156.9350 203.1952 15.17950131  3712"}}, "geometry": {"type": "Point", "coordinates": [-173.15264781222567, -81.62052850244378]}}]}